O3B MPOWER F1           
1 54755U 22174A   24272.00513022 -.00000032  00000+0  00000+0 0  9996
2 54755   0.0535 345.7855 0006524 193.5888  35.6199  5.00113575 33979
